[{"OBJECT_NAME":"KUIPER-00028","OBJECT_ID":"2025-088T","EPOCH":"2026-03-03T13:14:18.798144","MEAN_MOTION":14.79994475,"ECCENTRICITY":6.8e-5,"INCLINATION":51.899,"RA_OF_ASC_NODE":120.1964,"ARG_OF_PERICENTER":78.2827,"MEAN_ANOMALY":281.8212,"EPHEMERIS_TYPE":0,"CLASSIFICATION_TYPE":"U","NORAD_CAT_ID":63741,"ELEMENT_SET_NO":999,"REV_AT_EPOCH":4715,"BSTAR":0.0005221,"MEAN_MOTION_DOT":3.767e-5,"MEAN_MOTION_DDOT":0},{"OBJECT_NAME":"KUIPER-00029","OBJECT_ID":"2025-088U","EPOCH":"2026-03-04T04:10:23.176704","MEAN_MOTION":14.83604045,"ECCENTRICITY":7.31e-5,"INCLINATION":51.9007,"RA_OF_ASC_NODE":115.1106,"ARG_OF_PERICENTER":101.4605,"MEAN_ANOMALY":258.6441,"EPHEMERIS_TYPE":0,"CLASSIFICATION_TYPE":"U","NORAD_CAT_ID":63742,"ELEMENT_SET_NO":999,"REV_AT_EPOCH":4680,"BSTAR":0.00092982,"MEAN_MOTION_DOT":7.521e-5,"MEAN_MOTION_DDOT":0},{"OBJECT_NAME":"KUIPER-00030","OBJECT_ID":"2025-088V","EPOCH":"2026-03-03T15:13:03.308448","MEAN_MOTION":14.79967136,"ECCENTRICITY":0.0010599,"INCLINATION":51.9009,"RA_OF_ASC_NODE":137.324,"ARG_OF_PERICENTER":52.5827,"MEAN_ANOMALY":307.6099,"EPHEMERIS_TYPE":0,"CLASSIFICATION_TYPE":"U","NORAD_CAT_ID":63743,"ELEMENT_SET_NO":999,"REV_AT_EPOCH":4673,"BSTAR":0.0010383,"MEAN_MOTION_DOT":7.714e-5,"MEAN_MOTION_DDOT":0},{"OBJECT_NAME":"KUIPER-00031","OBJECT_ID":"2025-088W","EPOCH":"2026-03-03T13:47:35.147040","MEAN_MOTION":14.83591219,"ECCENTRICITY":0.0002271,"INCLINATION":51.8996,"RA_OF_ASC_NODE":122.8888,"ARG_OF_PERICENTER":126.1263,"MEAN_ANOMALY":233.9911,"EPHEMERIS_TYPE":0,"CLASSIFICATION_TYPE":"U","NORAD_CAT_ID":63744,"ELEMENT_SET_NO":999,"REV_AT_EPOCH":4664,"BSTAR":0.00088601,"MEAN_MOTION_DOT":7.153e-5,"MEAN_MOTION_DDOT":0},{"OBJECT_NAME":"KUIPER-00032","OBJECT_ID":"2025-088X","EPOCH":"2026-03-04T03:25:02.876160","MEAN_MOTION":15.37099858,"ECCENTRICITY":0.0005293,"INCLINATION":51.8699,"RA_OF_ASC_NODE":51.0425,"ARG_OF_PERICENTER":92.4005,"MEAN_ANOMALY":267.7587,"EPHEMERIS_TYPE":0,"CLASSIFICATION_TYPE":"U","NORAD_CAT_ID":63745,"ELEMENT_SET_NO":999,"REV_AT_EPOCH":4869,"BSTAR":0.00061415,"MEAN_MOTION_DOT":0.00022333,"MEAN_MOTION_DDOT":0},{"OBJECT_NAME":"KUIPER-00033","OBJECT_ID":"2025-088Y","EPOCH":"2026-03-03T16:38:09.470688","MEAN_MOTION":14.83386068,"ECCENTRICITY":8.001e-5,"INCLINATION":51.9009,"RA_OF_ASC_NODE":152.5199,"ARG_OF_PERICENTER":43.6556,"MEAN_ANOMALY":316.4471,"EPHEMERIS_TYPE":0,"CLASSIFICATION_TYPE":"U","NORAD_CAT_ID":63746,"ELEMENT_SET_NO":999,"REV_AT_EPOCH":4672,"BSTAR":0.0010324141,"MEAN_MOTION_DOT":8.333e-5,"MEAN_MOTION_DDOT":0},{"OBJECT_NAME":"KUIPER-00034","OBJECT_ID":"2025-088Z","EPOCH":"2026-03-04T02:52:57.554112","MEAN_MOTION":14.83551517,"ECCENTRICITY":0.0001776,"INCLINATION":51.9019,"RA_OF_ASC_NODE":112.9619,"ARG_OF_PERICENTER":337.5598,"MEAN_ANOMALY":22.5288,"EPHEMERIS_TYPE":0,"CLASSIFICATION_TYPE":"U","NORAD_CAT_ID":63747,"ELEMENT_SET_NO":999,"REV_AT_EPOCH":4699,"BSTAR":0.00091427,"MEAN_MOTION_DOT":7.382e-5,"MEAN_MOTION_DDOT":0},{"OBJECT_NAME":"KUIPER-00035","OBJECT_ID":"2025-088AA","EPOCH":"2026-03-04T04:00:03.000096","MEAN_MOTION":14.83217446,"ECCENTRICITY":0.0003849,"INCLINATION":51.8993,"RA_OF_ASC_NODE":138.4189,"ARG_OF_PERICENTER":60.8181,"MEAN_ANOMALY":345.2744,"EPHEMERIS_TYPE":0,"CLASSIFICATION_TYPE":"U","NORAD_CAT_ID":63748,"ELEMENT_SET_NO":999,"REV_AT_EPOCH":295,"BSTAR":0.0043864,"MEAN_MOTION_DOT":0.00036148,"MEAN_MOTION_DDOT":0},{"OBJECT_NAME":"KUIPER-00037","OBJECT_ID":"2025-088AB","EPOCH":"2026-03-03T10:17:25.133568","MEAN_MOTION":14.79874526,"ECCENTRICITY":7.145e-5,"INCLINATION":51.9001,"RA_OF_ASC_NODE":140.7464,"ARG_OF_PERICENTER":34.8544,"MEAN_ANOMALY":325.2465,"EPHEMERIS_TYPE":0,"CLASSIFICATION_TYPE":"U","NORAD_CAT_ID":63749,"ELEMENT_SET_NO":999,"REV_AT_EPOCH":4738,"BSTAR":0.00091145581,"MEAN_MOTION_DOT":6.725e-5,"MEAN_MOTION_DDOT":0},{"OBJECT_NAME":"KUIPER-00038","OBJECT_ID":"2025-088AC","EPOCH":"2026-03-04T04:30:26.931744","MEAN_MOTION":14.79929897,"ECCENTRICITY":4.95e-5,"INCLINATION":51.9019,"RA_OF_ASC_NODE":122.4199,"ARG_OF_PERICENTER":90.7984,"MEAN_ANOMALY":269.3035,"EPHEMERIS_TYPE":0,"CLASSIFICATION_TYPE":"U","NORAD_CAT_ID":63750,"ELEMENT_SET_NO":999,"REV_AT_EPOCH":4670,"BSTAR":0.00065393,"MEAN_MOTION_DOT":4.767e-5,"MEAN_MOTION_DDOT":0},{"OBJECT_NAME":"KUIPER-00039","OBJECT_ID":"2025-134A","EPOCH":"2026-03-04T00:36:36.478944","MEAN_MOTION":14.79926935,"ECCENTRICITY":0.0001035,"INCLINATION":51.8998,"RA_OF_ASC_NODE":258.1401,"ARG_OF_PERICENTER":62.4334,"MEAN_ANOMALY":297.6733,"EPHEMERIS_TYPE":0,"CLASSIFICATION_TYPE":"U","NORAD_CAT_ID":64500,"ELEMENT_SET_NO":999,"REV_AT_EPOCH":3923,"BSTAR":0.00071875,"MEAN_MOTION_DOT":5.262e-5,"MEAN_MOTION_DDOT":0},{"OBJECT_NAME":"KUIPER-00040","OBJECT_ID":"2025-134B","EPOCH":"2026-03-04T00:18:31.928256","MEAN_MOTION":14.79966712,"ECCENTRICITY":0.0013342,"INCLINATION":51.8999,"RA_OF_ASC_NODE":269.336,"ARG_OF_PERICENTER":246.5276,"MEAN_ANOMALY":113.4285,"EPHEMERIS_TYPE":0,"CLASSIFICATION_TYPE":"U","NORAD_CAT_ID":64501,"ELEMENT_SET_NO":999,"REV_AT_EPOCH":3907,"BSTAR":0.0019402,"MEAN_MOTION_DOT":0.00014632,"MEAN_MOTION_DDOT":0},{"OBJECT_NAME":"KUIPER-00041","OBJECT_ID":"2025-134C","EPOCH":"2026-03-03T19:32:35.308320","MEAN_MOTION":14.78700498,"ECCENTRICITY":0.000713,"INCLINATION":51.8983,"RA_OF_ASC_NODE":271.6176,"ARG_OF_PERICENTER":245.2888,"MEAN_ANOMALY":114.7331,"EPHEMERIS_TYPE":0,"CLASSIFICATION_TYPE":"U","NORAD_CAT_ID":64502,"ELEMENT_SET_NO":999,"REV_AT_EPOCH":3902,"BSTAR":0.00068539,"MEAN_MOTION_DOT":4.86e-5,"MEAN_MOTION_DDOT":0},{"OBJECT_NAME":"KUIPER-00042","OBJECT_ID":"2025-134D","EPOCH":"2026-03-03T19:30:40.235616","MEAN_MOTION":14.79864023,"ECCENTRICITY":0.0007322,"INCLINATION":51.8987,"RA_OF_ASC_NODE":267.5802,"ARG_OF_PERICENTER":260.637,"MEAN_ANOMALY":99.3764,"EPHEMERIS_TYPE":0,"CLASSIFICATION_TYPE":"U","NORAD_CAT_ID":64503,"ELEMENT_SET_NO":999,"REV_AT_EPOCH":3908,"BSTAR":0.00064321,"MEAN_MOTION_DOT":4.678e-5,"MEAN_MOTION_DDOT":0},{"OBJECT_NAME":"KUIPER-00043","OBJECT_ID":"2025-134E","EPOCH":"2026-03-03T17:40:03.115488","MEAN_MOTION":14.83786115,"ECCENTRICITY":9.237e-5,"INCLINATION":51.8998,"RA_OF_ASC_NODE":259.5065,"ARG_OF_PERICENTER":315.9393,"MEAN_ANOMALY":44.1497,"EPHEMERIS_TYPE":0,"CLASSIFICATION_TYPE":"U","NORAD_CAT_ID":64504,"ELEMENT_SET_NO":999,"REV_AT_EPOCH":3919,"BSTAR":0.00066892108,"MEAN_MOTION_DOT":5.369e-5,"MEAN_MOTION_DDOT":0},{"OBJECT_NAME":"KUIPER-00044","OBJECT_ID":"2025-134F","EPOCH":"2026-03-04T00:14:33.155808","MEAN_MOTION":14.79927713,"ECCENTRICITY":0.0007637,"INCLINATION":51.8995,"RA_OF_ASC_NODE":271.7064,"ARG_OF_PERICENTER":257.7879,"MEAN_ANOMALY":102.2229,"EPHEMERIS_TYPE":0,"CLASSIFICATION_TYPE":"U","NORAD_CAT_ID":64505,"ELEMENT_SET_NO":999,"REV_AT_EPOCH":3904,"BSTAR":-0.0021098,"MEAN_MOTION_DOT":-0.00016274,"MEAN_MOTION_DDOT":0},{"OBJECT_NAME":"KUIPER-00046","OBJECT_ID":"2025-134G","EPOCH":"2026-03-03T19:29:05.244000","MEAN_MOTION":14.79940918,"ECCENTRICITY":7.351e-5,"INCLINATION":51.8972,"RA_OF_ASC_NODE":269.0433,"ARG_OF_PERICENTER":112.5565,"MEAN_ANOMALY":247.5475,"EPHEMERIS_TYPE":0,"CLASSIFICATION_TYPE":"U","NORAD_CAT_ID":64506,"ELEMENT_SET_NO":999,"REV_AT_EPOCH":3906,"BSTAR":0.00065978612,"MEAN_MOTION_DOT":4.813e-5,"MEAN_MOTION_DDOT":0}]
