KUIPER-00028            
1 63741U 25088T   26062.55160646  .00003767  00000+0  52210-3 0  9998
2 63741  51.8990 120.1964 0000680  78.2827 281.8212 14.79994475 47156
KUIPER-00029            
1 63742U 25088U   26063.17387936  .00007521  00000+0  92982-3 0  9993
2 63742  51.9007 115.1106 0000731 101.4605 258.6441 14.83604045 46802
KUIPER-00030            
1 63743U 25088V   26062.63406607  .00007714  00000+0  10383-2 0  9999
2 63743  51.9009 137.3240 0010599  52.5827 307.6099 14.79967136 46739
KUIPER-00031            
1 63744U 25088W   26062.57471235  .00007153  00000+0  88601-3 0  9998
2 63744  51.8996 122.8888 0002271 126.1263 233.9911 14.83591219 46645
KUIPER-00032            
1 63745U 25088X   26063.14239440  .00022333  00000+0  61415-3 0  9994
2 63745  51.8699  51.0425 0005293  92.4005 267.7587 15.37099858 48695
KUIPER-00033            
1 63746U 25088Y   26062.69316517  .00008333  00000+0  10324-2 0  9991
2 63746  51.9009 152.5199 0000800  43.6556 316.4471 14.83386068 46723
KUIPER-00034            
1 63747U 25088Z   26063.12011058  .00007382  00000+0  91427-3 0  9990
2 63747  51.9019 112.9619 0001776 337.5598  22.5288 14.83551517 46999
KUIPER-00035            
1 63748U 25088AA  26063.16670139  .00036148  00000+0  43864-2 0  9999
2 63748  51.8993 138.4189 0003849  60.8181 345.2744 14.83217446  2952
KUIPER-00037            
1 63749U 25088AB  26062.42876312  .00006725  00000+0  91146-3 0  9994
2 63749  51.9001 140.7464 0000714  34.8544 325.2465 14.79874526 47385
KUIPER-00038            
1 63750U 25088AC  26063.18781171  .00004767  00000+0  65393-3 0  9997
2 63750  51.9019 122.4199 0000495  90.7984 269.3035 14.79929897 46701
KUIPER-00039            
1 64500U 25134A   26063.02542221  .00005262  00000+0  71875-3 0  9990
2 64500  51.8998 258.1401 0001035  62.4334 297.6733 14.79926935 39238
KUIPER-00040            
1 64501U 25134B   26063.01286954  .00014632  00000+0  19402-2 0  9996
2 64501  51.8999 269.3360 0013342 246.5276 113.4285 14.79966712 39078
KUIPER-00041            
1 64502U 25134C   26062.81429755  .00004860  00000+0  68539-3 0  9990
2 64502  51.8983 271.6176 0007130 245.2888 114.7331 14.78700498 39023
KUIPER-00042            
1 64503U 25134D   26062.81296569  .00004678  00000+0  64321-3 0  9998
2 64503  51.8987 267.5802 0007322 260.6370  99.3764 14.79864023 39088
KUIPER-00043            
1 64504U 25134E   26062.73614717  .00005369  00000+0  66892-3 0  9992
2 64504  51.8998 259.5065 0000923 315.9393  44.1497 14.83786115 39195
KUIPER-00044            
1 64505U 25134F   26063.01010597 -.00016274  00000+0 -21098-2 0  9998
2 64505  51.8995 271.7064 0007637 257.7879 102.2229 14.79927713 39048
KUIPER-00046            
1 64506U 25134G   26062.81186625  .00004813  00000+0  65979-3 0  9993
2 64506  51.8972 269.0433 0000735 112.5565 247.5475 14.79940918 39066
